41901,SPARK 2,2016,98.81,50.0,+,98.47,Active,1,LEO,PRC,China,Government,Earth Observation,Long March,1 41901U 16081D   24271.88983514  .00002337  00000+0  52359-3 0  9994,2 41901  98.4711 235.3544 0027748  98.2402 262.1945 14.57378753412686,14.57378753,0.0027748,LEO
41903,JCSAT-110A (JCSAT-15),2016,1436.09,3400.0,+,0.02,Active,1,GSO,French Guiana,Japan,Commercial,Communications,Ariane,1 41903U 16082A   24269.26478017 -.00000366  00000+0  00000+0 0  9996,2 41903   0.0181 164.4219 0001132  63.9818 341.5595  1.00272428 28444,1.00272428,0.0001132,GEO
41904,STAR ONE D1,2016,1436.13,6433.0,+,0.01,Active,1,GSO,French Guiana,Brazil,Commercial,Communications,Ariane,1 41904U 16082B   24272.01545410 -.00000225  00000+0  00000+0 0  9990,2 41904   0.0160 126.5682 0001612  66.0427  96.2315  1.00269104 28494,1.00269104,0.0001612,GEO
41907,SUPERVIEW-1 01,2016,92.61,560.0,+,97.44,Active,1,LEO,PRC,China,Commercial,Earth Observation,Long March,1 41907U 16083A   24272.05730926  .00094599  00000+0  13977-2 0  9992,2 41907  97.4371  10.7749 0008188 164.1432 196.0080 15.54973153429707,15.54973153,0.0008188,LEO
41908,SUPERVIEW-1 02,2016,92.32,560.0,+,97.25,Active,1,LEO,PRC,China,Commercial,Earth Observation,Long March,1 41908U 16083B   24272.09843106  .00113151  00000+0  13875-2 0  9995,2 41908  97.2509 338.6530 0010225 165.7880 194.3667 15.59898616429873,15.59898616,0.0010225,LEO
41911,TJS-2,2017,1436.07,-1.0,+,0.06,Active,1,GSO,PRC,China,Government,Technology Development,Long March,1 41911U 17001A   24271.75933330 -.00000022  00000+0  00000+0 0  9997,2 41911   0.0574 102.0866 0000953 149.8965  94.9140  1.00274034 28431,1.00274034,9.53e-05,GEO
41914,JILIN-1 03,2017,94.56,400.0,+,97.22,Active,1,LEO,PRC,China,Commercial,Earth Observation,Kuaizhou,1 41914U 17002B   24272.07074126  .00016098  00000+0  68994-3 0  9995,2 41914  97.2152 284.7612 0006418 253.4905 106.5627 15.22815801425803,15.22815801,0.0006418,LEO
41915,KAIDUN 1,2017,93.81,-1.0,+,97.2,Active,0,LEO,PRC,China,Unknown,Unknown,Unknown,1 41915U 17002C   24272.11078733  .00034017  00000+0  99601-3 0  9999,2 41915  97.1950 297.1412 0004787 199.4868 160.6194 15.35145570426634,15.3514557,0.0004787,LEO
41917,IRIDIUM 106,2017,100.4,860.0,+,86.4,Active,1,LEO,USA,USA,Commercial/Government,Communications,Falcon,1 41917U 17003A   24271.45788904  .00000617  00000+0  21324-3 0  9992,2 41917  86.4026 350.8587 0002263 104.8147 255.3299 14.34223453403232,14.34223453,0.0002263,LEO
41918,IRIDIUM 103,2017,100.4,860.0,+,86.4,Active,1,LEO,USA,USA,Commercial/Government,Communications,Falcon,1 41918U 17003B   24272.07312155  .00000310  00000+0  10363-3 0  9994,2 41918  86.4025 350.5037 0001701 103.8308 256.3077 14.34218038403354,14.34218038,0.0001701,LEO
41919,IRIDIUM 109,2017,100.4,860.0,+,86.4,Active,1,LEO,USA,USA,Commercial/Government,Communications,Falcon,1 41919U 17003C   24271.52132062  .00000786  00000+0  27359-3 0  9991,2 41919  86.4029 350.7831 0002010  85.6754 274.4671 14.34218362403237,14.34218362,0.000201,LEO
41920,IRIDIUM 102,2017,100.4,860.0,+,86.4,Active,1,LEO,USA,USA,Commercial/Government,Communications,Falcon,1 41920U 17003D   24271.48960656  .00000503  00000+0  17242-3 0  9993,2 41920  86.4028 350.7337 0002217  93.4111 266.7339 14.34219742403319,14.34219742,0.0002217,LEO
41921,IRIDIUM 105,2017,100.4,860.0,+,86.4,Active,1,LEO,USA,USA,Commercial/Government,Communications,Falcon,1 41921U 17003E   24271.59987868  .00000371  00000+0  12532-3 0  9990,2 41921  86.3974 319.1328 0002204  95.9875 264.1572 14.34215857405189,14.34215857,0.0002204,LEO
41922,IRIDIUM 104,2017,100.4,860.0,+,86.4,Active,1,LEO,USA,USA,Commercial/Government,Communications,Falcon,1 41922U 17003F   24271.50229165  .00000453  00000+0  15452-3 0  9996,2 41922  86.4031 350.7617 0001911  88.1978 271.9437 14.34216535403301,14.34216535,0.0001911,LEO
41923,IRIDIUM 114,2017,100.4,860.0,+,86.4,Active,1,LEO,USA,USA,Commercial/Government,Communications,Falcon,1 41923U 17003G   24271.92724178  .00000494  00000+0  16940-3 0  9995,2 41923  86.4028 350.5693 0002113 100.0536 260.0898 14.34220423403366,14.34220423,0.0002113,LEO
41924,IRIDIUM 108,2017,100.4,860.0,+,86.4,Active,1,LEO,USA,USA,Commercial/Government,Communications,Falcon,1 41924U 17003H   24271.53692068  .00000632  00000+0  21854-3 0  9999,2 41924  86.3969 319.0774 0002346  99.2645 260.8816 14.34222571405140,14.34222571,0.0002346,LEO
41925,IRIDIUM 112,2017,100.4,860.0,+,86.4,Active,1,LEO,USA,USA,Commercial/Government,Communications,Falcon,1 41925U 17003J   24271.49594813  .00000458  00000+0  15643-3 0  9999,2 41925  86.4020 350.6199 0001958  86.4508 273.6912 14.34219396403302,14.34219396,0.0001958,LEO
41926,IRIDIUM 111,2017,100.4,860.0,+,86.4,Active,1,LEO,USA,USA,Commercial/Government,Communications,Falcon,1 41926U 17003K   24271.48325914  .00000614  00000+0  21230-3 0  9996,2 41926  86.4026 350.6822 0001932  93.8321 266.3096 14.34222819403282,14.34222819,0.0001932,LEO
41937,SBIRS GEO-4 (USA 273),2017,1436.1,4500.0,+,1.43,Active,1,GSO,USA,USA,Military,Earth Observation,Atlas,1 41937U 17004A   24271.62466137 -.00000158  00000+0  00000+0 0  9990,2 41937   1.4281   7.5927 0002030 195.4063 291.9806  1.00271912 28306,1.00271912,0.000203,GSO
41942,HISPASAT 36W-1,2017,1436.11,3220.0,+,0.04,Active,1,GSO,French Guiana,Spain,Commercial,Communications,Soyuz,1 41942U 17006A   24272.03174253 -.00000259  00000+0  00000+0 0  9991,2 41942   0.0055  83.0113 0000979 100.1757 159.5438  1.00272017 28245,1.00272017,9.79e-05,GEO
41944,TELKOM 3S,2017,1436.16,3550.0,+,0.02,Active,1,GSO,French Guiana,Indonesia,Commercial,Communications,Ariane,1 41944U 17007A   24270.70466140 -.00000379  00000+0  00000+0 0  9998,2 41944   0.0215 153.4321 0002724  55.2465 168.9834  1.00267138 27830,1.00267138,0.0002724,GEO
41945,INTELSAT 32E (IS-32E),2017,1436.1,6000.0,+,0.01,Active,1,GSO,French Guiana,INTELSAT,Commercial,Communications,Ariane,1 41945U 17007B   24270.95088056 -.00000285  00000+0  00000+0 0  9998,2 41945   0.0133 124.1871 0000513  71.8979 109.2812  1.00271783 27928,1.00271783,5.13e-05,GEO
41948,CARTOSAT-2D,2017,94.78,714.0,+,97.41,Active,1,LEO,India,India,Government,Earth Observation,PSLV,1 41948U 17008A   24272.06789531  .00011472  00000+0  54553-3 0  9997,2 41948  97.4146 329.5488 0005926 264.3756  95.6803 15.19335351422367,15.19335351,0.0005926,LEO
42063,SENTINEL-2B,2017,100.64,1130.0,+,98.57,Active,1,LEO,French Guiana,ESA,Government,Earth Observation,Vega,1 42063U 17013A   24272.07464550  .00000460  00000+0  19231-3 0  9993,2 42063  98.5707 344.8495 0000986  88.0989 272.0306 14.30811131394970,14.30811131,9.86e-05,LEO
42070,ECHOSTAR 23,2017,1436.13,5600.0,+,0.02,Active,1,GSO,USA,USA,Commercial,Communications,Falcon,1 42070U 17014A   24270.50068814 -.00000073  00000+0  00000+0 0  9992,2 42070   0.0233 159.7740 0002001  22.6088 253.7535  1.00269597 27610,1.00269597,0.0002001,GEO
42075,WGS F9 (USA 275),2017,1436.12,5990.0,+,0.01,Active,1,GSO,USA,USA,Military,Communications,Delta,1 42075U 17016A   24270.85535747 -.00000113  00000+0  00000+0 0  9996,2 42075   0.0076 223.9242 0000680  32.6529  45.4826  1.00269947 27598,1.00269947,6.8e-05,GEO
42432,SES-10,2017,1436.1,5271.0,+,0.04,Active,1,GSO,USA,SES,Commercial,Communications,Falcon,1 42432U 17017A   24271.51824028 -.00000288  00000+0  00000+0 0  9994,2 42432   0.0355  50.8421 0002596 136.0558 299.5671  1.00271760 27451,1.0027176,0.0002596,GEO
42662,CHINASAT 16 (SJ-13),2017,1436.16,4600.0,+,0.05,Active,1,GSO,PRC,China,Government,Technology Development,Long March,1 42662U 17018A   24271.92688559 -.00000367  00000+0  00000+0 0  9990,2 42662   0.0516  94.3981 0007372 131.5379 225.4343  1.00274653 27455,1.00274653,0.0007372,GEO
42691,KOREASAT 7,2017,1436.13,3680.0,+,0.02,Active,1,GSO,French Guiana,South Korea,Commercial,Communications,Ariane,1 42691U 17023A   24271.98366157 -.00000377  00000+0  00000+0 0  9992,2 42691   0.0313  30.1729 0001762 179.5238 267.5779  1.00274460 27156,1.0027446,0.0001762,GEO
42692,SGDC,2017,1436.11,5735.0,+,0.01,Active,1,GSO,French Guiana,Brazil,Commercial/Military,Communications,Ariane,1 42692U 17023B   24270.19264434 -.00000265  00000+0  00000+0 0  9996,2 42692   0.0122 112.1955 0002639  95.5932 152.2030  1.00271129 27103,1.00271129,0.0002639,GEO
42695,GSAT-9,2017,1436.14,2230.0,+,0.01,Active,1,GSO,India,India,Government,Communications,GSLV,1 42695U 17024A   24272.06716142 -.00000301  00000+0  00000+0 0  9997,2 42695   0.0118 198.5737 0002393 353.2300 297.0321  1.00268402 27142,1.00268402,0.0002393,GEO
