OBJECT_NAME,OBJECT_ID,EPOCH,MEAN_MOTION,ECCENTRICITY,INCLINATION,RA_OF_ASC_NODE,ARG_OF_PERICENTER,MEAN_ANOMALY,EPHEMERIS_TYPE,CLASSIFICATION_TYPE,NORAD_CAT_ID,ELEMENT_SET_NO,REV_AT_EPOCH,BSTAR,MEAN_MOTION_DOT,MEAN_MOTION_DDOT
SPARK 2,2016-081D,2024-09-27T21:21:21.756096,14.57378753,.0027748,98.4711,235.3544,98.2402,262.1945,0,U,41901,999,41268,.52359E-3,.2337E-4,0
JCSAT-110A (JCSAT-15),2016-082A,2024-09-25T06:21:17.006688,1.00272428,.0001132,0.0181,164.4219,63.9818,341.5595,0,U,41903,999,2844,0,-.366E-5,0
STAR ONE D1,2016-082B,2024-09-28T00:22:15.234240,1.00269104,.0001612,0.0160,126.5682,66.0427,96.2315,0,U,41904,999,2849,0,-.225E-5,0
SUPERVIEW-1 01,2016-083A,2024-09-28T01:22:31.520064,15.54973153,.0008188,97.4371,10.7749,164.1432,196.0080,0,U,41907,999,42970,.13977E-2,.94599E-3,0
SUPERVIEW-1 02,2016-083B,2024-09-28T02:21:44.443584,15.59898616,.0010225,97.2509,338.6530,165.7880,194.3667,0,U,41908,999,42987,.13875E-2,.113151E-2,0
TJS-2,2017-001A,2024-09-27T18:13:26.397120,1.00274034,.0000953,0.0574,102.0866,149.8965,94.9140,0,U,41911,999,2843,0,-.22E-6,0
JILIN-1 03,2017-002B,2024-09-28T01:41:52.044864,15.22815801,.0006418,97.2152,284.7612,253.4905,106.5627,0,U,41914,999,42580,.68994E-3,.16098E-3,0
KAIDUN 1,2017-002C,2024-09-28T02:39:32.025312,15.35145570,.0004787,97.1950,297.1412,199.4868,160.6194,0,U,41915,999,42663,.99601E-3,.34017E-3,0
IRIDIUM 106,2017-003A,2024-09-27T10:59:21.613056,14.34223453,.0002263,86.4026,350.8587,104.8147,255.3299,0,U,41917,999,40323,.21324E-3,.617E-5,0
IRIDIUM 103,2017-003B,2024-09-28T01:45:17.701920,14.34218038,.0001701,86.4025,350.5037,103.8308,256.3077,0,U,41918,999,40335,.10363E-3,.31E-5,0
IRIDIUM 109,2017-003C,2024-09-27T12:30:42.101568,14.34218362,.000201,86.4029,350.7831,85.6754,274.4671,0,U,41919,999,40323,.27359E-3,.786E-5,0
IRIDIUM 102,2017-003D,2024-09-27T11:45:02.006784,14.34219742,.0002217,86.4028,350.7337,93.4111,266.7339,0,U,41920,999,40331,.17242E-3,.503E-5,0
IRIDIUM 105,2017-003E,2024-09-27T14:23:49.517952,14.34215857,.0002204,86.3974,319.1328,95.9875,264.1572,0,U,41921,999,40518,.12532E-3,.371E-5,0
IRIDIUM 104,2017-003F,2024-09-27T12:03:17.998560,14.34216535,.0001911,86.4031,350.7617,88.1978,271.9437,0,U,41922,999,40330,.15452E-3,.453E-5,0
IRIDIUM 114,2017-003G,2024-09-27T22:15:13.689792,14.34220423,.0002113,86.4028,350.5693,100.0536,260.0898,0,U,41923,999,40336,.1694E-3,.494E-5,0
IRIDIUM 108,2017-003H,2024-09-27T12:53:09.946752,14.34222571,.0002346,86.3969,319.0774,99.2645,260.8816,0,U,41924,999,40514,.21854E-3,.632E-5,0
IRIDIUM 112,2017-003J,2024-09-27T11:54:09.918432,14.34219396,.0001958,86.4020,350.6199,86.4508,273.6912,0,U,41925,999,40330,.15643E-3,.458E-5,0
IRIDIUM 111,2017-003K,2024-09-27T11:35:53.589696,14.34222819,.0001932,86.4026,350.6822,93.8321,266.3096,0,U,41926,999,40328,.2123E-3,.614E-5,0
SBIRS GEO-4 (USA 273),2017-004A,2024-09-27T14:59:30.742368,1.00271912,.000203,1.4281,7.5927,195.4063,291.9806,0,U,41937,999,2830,0,-.158E-5,0
HISPASAT 36W-1,2017-006A,2024-09-28T00:45:42.554592,1.00272017,.0000979,0.0055,83.0113,100.1757,159.5438,0,U,41942,999,2824,0,-.259E-5,0
TELKOM 3S,2017-007A,2024-09-26T16:54:42.744960,1.00267138,.0002724,0.0215,153.4321,55.2465,168.9834,0,U,41944,999,2783,0,-.379E-5,0
INTELSAT 32E (IS-32E),2017-007B,2024-09-26T22:49:16.080384,1.00271783,.0000513,0.0133,124.1871,71.8979,109.2812,0,U,41945,999,2792,0,-.285E-5,0
CARTOSAT-2D,2017-008A,2024-09-28T01:37:46.154784,15.19335351,.0005926,97.4146,329.5488,264.3756,95.6803,0,U,41948,999,42236,.54553E-3,.11472E-3,0
SENTINEL-2B,2017-013A,2024-09-28T01:47:29.371200,14.30811131,.0000986,98.5707,344.8495,88.0989,272.0306,0,U,42063,999,39497,.19231E-3,.46E-5,0
ECHOSTAR 23,2017-014A,2024-09-26T12:00:59.455296,1.00269597,.0002001,0.0233,159.7740,22.6088,253.7535,0,U,42070,999,2761,0,-.73E-6,0
WGS F9 (USA 275),2017-016A,2024-09-26T20:31:42.885408,1.00269947,.000068,0.0076,223.9242,32.6529,45.4826,0,U,42075,999,2759,0,-.113E-5,0
SES-10,2017-017A,2024-09-27T12:26:15.960192,1.00271760,.0002596,0.0355,50.8421,136.0558,299.5671,0,U,42432,999,2745,0,-.288E-5,0
CHINASAT 16 (SJ-13),2017-018A,2024-09-27T22:14:42.914976,1.00274653,.0007372,0.0516,94.3981,131.5379,225.4343,0,U,42662,999,2745,0,-.367E-5,0
KOREASAT 7,2017-023A,2024-09-27T23:36:28.359648,1.00274460,.0001762,0.0313,30.1729,179.5238,267.5779,0,U,42691,999,2715,0,-.377E-5,0
SGDC,2017-023B,2024-09-26T04:37:24.470976,1.00271129,.0002639,0.0122,112.1955,95.5932,152.2030,0,U,42692,999,2710,0,-.265E-5,0
GSAT-9,2017-024A,2024-09-28T01:36:42.746688,1.00268402,.0002393,0.0118,198.5737,353.2300,297.0321,0,U,42695,999,2714,0,-.301E-5,0
